start=new Date('2021-09-02T00:00:00.000Z').valueOf();
sats=[{"LAUNCH_DATE":"2020-08-18","MEAN_MOTION_DOT":"0.00001129","FILE":"3107096","REF_FRAME":"TEME","MEAN_ELEMENT_THEORY":"SGP4","COUNTRY_CODE":"US","BSTAR":"0.00009471700000","GP_ID":"183927493","DECAY_DATE":null,"EPHEMERIS_TYPE":"0","NORAD_CAT_ID":"46140","OBJECT_ID":"2020-057Z","PERIAPSIS":"546.097","RA_OF_ASC_NODE":"122.9752","MEAN_ANOMALY":"277.8356","MEAN_MOTION":"15.06380708","SITE":"AFETR","CENTER_NAME":"EARTH","REV_AT_EPOCH":"5922","ELEMENT_SET_NO":"999","MEAN_MOTION_DDOT":"0.0000000000000","OBJECT_NAME":"STARLINK-1594","RCS_SIZE":"LARGE","CLASSIFICATION_TYPE":"U","INCLINATION":"53.0548","TIME_SYSTEM":"UTC","TLE_LINE1":"1 46140U 20057Z   21244.86656615  .00001129  00000-0  94717-4 0  9990","TLE_LINE2":"2 46140  53.0548 122.9752 0001697  82.2826 277.8356 15.06380708 59225","ARG_OF_PERICENTER":"82.2826","APOAPSIS":"548.448","SEMIMAJOR_AXIS":"6925.408","ECCENTRICITY":"0.00016970","EPOCH":"2021-09-01T20:47:51.315360","OBJECT_TYPE":"PAYLOAD","PERIOD":"95.593"},{"EPHEMERIS_TYPE":"0","DECAY_DATE":null,"OBJECT_ID":"2020-057AA","NORAD_CAT_ID":"46141","PERIAPSIS":"545.898","MEAN_ANOMALY":"276.2919","RA_OF_ASC_NODE":"123.0729","LAUNCH_DATE":"2020-08-18","REF_FRAME":"TEME","FILE":"3107096","MEAN_MOTION_DOT":"0.00001389","COUNTRY_CODE":"US","MEAN_ELEMENT_THEORY":"SGP4","GP_ID":"183926741","BSTAR":"0.00011219000000","APOAPSIS":"548.650","SEMIMAJOR_AXIS":"6925.409","EPOCH":"2021-09-01T20:16:00.748704","ECCENTRICITY":"0.00019870","PERIOD":"95.593","OBJECT_TYPE":"PAYLOAD","MEAN_MOTION":"15.06380365","OBJECT_NAME":"STARLINK-1596","MEAN_MOTION_DDOT":"0.0000000000000","ELEMENT_SET_NO":"999","REV_AT_EPOCH":"5795","CENTER_NAME":"EARTH","SITE":"AFETR","RCS_SIZE":"LARGE","ARG_OF_PERICENTER":"83.8296","TLE_LINE2":"2 46141  53.0554 123.0729 0001987  83.8296 276.2919 15.06380365 57954","TLE_LINE1":"1 46141U 20057AA  21244.84445311  .00001389  00000-0  11219-3 0  9991","TIME_SYSTEM":"UTC","CLASSIFICATION_TYPE":"U","INCLINATION":"53.0554"},{"CENTER_NAME":"EARTH","SITE":"AFETR","REV_AT_EPOCH":"5739","ELEMENT_SET_NO":"999","MEAN_MOTION_DDOT":"0.0000000000000","OBJECT_NAME":"STARLINK-1597","MEAN_MOTION":"15.06392806","CLASSIFICATION_TYPE":"U","INCLINATION":"53.0560","TIME_SYSTEM":"UTC","TLE_LINE1":"1 46142U 20057AB  21244.86286746  .00001769  00000-0  13767-3 0  9991","TLE_LINE2":"2 46142  53.0560 162.9746 0001679  71.1944 288.9227 15.06392806 57394","ARG_OF_PERICENTER":"71.1944","RCS_SIZE":"LARGE","SEMIMAJOR_AXIS":"6925.371","APOAPSIS":"548.398","OBJECT_TYPE":"PAYLOAD","PERIOD":"95.593","ECCENTRICITY":"0.00016790","EPOCH":"2021-09-01T20:42:31.748544","MEAN_MOTION_DOT":"0.00001769","FILE":"3107096","REF_FRAME":"TEME","LAUNCH_DATE":"2020-08-18","BSTAR":"0.00013767000000","GP_ID":"183926491","MEAN_ELEMENT_THEORY":"SGP4","COUNTRY_CODE":"US","NORAD_CAT_ID":"46142","OBJECT_ID":"2020-057AB","DECAY_DATE":null,"EPHEMERIS_TYPE":"0","RA_OF_ASC_NODE":"162.9746","MEAN_ANOMALY":"288.9227","PERIAPSIS":"546.073"},{"APOAPSIS":"548.403","SEMIMAJOR_AXIS":"6925.384","EPOCH":"2021-09-01T02:26:27.704256","ECCENTRICITY":"0.00016660","PERIOD":"95.593","OBJECT_TYPE":"PAYLOAD","MEAN_MOTION":"15.06388380","OBJECT_NAME":"STARLINK-1599","MEAN_MOTION_DDOT":"0.0000000000000","REV_AT_EPOCH":"5756","ELEMENT_SET_NO":"999","CENTER_NAME":"EARTH","SITE":"AFETR","RCS_SIZE":"LARGE","ARG_OF_PERICENTER":"79.2190","TLE_LINE2":"2 46143  53.0546 146.4035 0001666  79.2190 280.8987 15.06388380 57560","TIME_SYSTEM":"UTC","TLE_LINE1":"1 46143U 20057AC  21244.10170954  .00002019  00000-0  15442-3 0  9993","CLASSIFICATION_TYPE":"U","INCLINATION":"53.0546","EPHEMERIS_TYPE":"0","DECAY_DATE":null,"OBJECT_ID":"2020-057AC","NORAD_CAT_ID":"46143","PERIAPSIS":"546.095","MEAN_ANOMALY":"280.8987","RA_OF_ASC_NODE":"146.4035","LAUNCH_DATE":"2020-08-18","REF_FRAME":"TEME","FILE":"3106942","MEAN_MOTION_DOT":"0.00002019","COUNTRY_CODE":"US","MEAN_ELEMENT_THEORY":"SGP4","GP_ID":"183877721","BSTAR":"0.00015442000000"},{"APOAPSIS":"548.459","SEMIMAJOR_AXIS":"6925.388","ECCENTRICITY":"0.00017410","EPOCH":"2021-09-01T03:56:42.998784","PERIOD":"95.593","OBJECT_TYPE":"PAYLOAD","MEAN_MOTION":"15.06387088","CENTER_NAME":"EARTH","SITE":"AFETR","ELEMENT_SET_NO":"999","REV_AT_EPOCH":"4582","MEAN_MOTION_DDOT":"0.0000000000000","OBJECT_NAME":"STARLINK-1606","RCS_SIZE":"LARGE","INCLINATION":"53.0546","CLASSIFICATION_TYPE":"U","TLE_LINE1":"1 46144U 20057AD  21244.16438656  .00001616  00000-0  12740-3 0  9996","TIME_SYSTEM":"UTC","TLE_LINE2":"2 46144  53.0546 146.1193 0001741  55.9970 304.1184 15.06387088 45823","ARG_OF_PERICENTER":"55.9970","DECAY_DATE":null,"EPHEMERIS_TYPE":"0","NORAD_CAT_ID":"46144","OBJECT_ID":"2020-057AD","PERIAPSIS":"546.047","RA_OF_ASC_NODE":"146.1193","MEAN_ANOMALY":"304.1184","LAUNCH_DATE":"2020-08-18","MEAN_MOTION_DOT":"0.00001616","FILE":"3106942","REF_FRAME":"TEME","MEAN_ELEMENT_THEORY":"SGP4","COUNTRY_CODE":"US","BSTAR":"0.00012740000000","GP_ID":"183876707"},{"RCS_SIZE":"LARGE","ARG_OF_PERICENTER":"85.8619","TLE_LINE2":"2 46145  53.0523 126.6659 0000981  85.8619 274.2510 15.71482924 59176","TLE_LINE1":"1 46145U 20057AE  21244.89753951  .00024364  00000-0  19079-3 0  9992","TIME_SYSTEM":"UTC","INCLINATION":"53.0523","CLASSIFICATION_TYPE":"U","MEAN_MOTION":"15.71482924","OBJECT_NAME":"STARLINK-1607","MEAN_MOTION_DDOT":"0.0000000000000","REV_AT_EPOCH":"5917","ELEMENT_SET_NO":"999","CENTER_NAME":"EARTH","SITE":"AFETR","EPOCH":"2021-09-01T21:32:27.413664","ECCENTRICITY":"0.00009810","PERIOD":"91.633","OBJECT_TYPE":"PAYLOAD","APOAPSIS":"355.321","SEMIMAJOR_AXIS":"6732.795","COUNTRY_CODE":"US","MEAN_ELEMENT_THEORY":"SGP4","GP_ID":"183926242","BSTAR":"0.00019079000000","LAUNCH_DATE":"2020-08-18","REF_FRAME":"TEME","FILE":"3107096","MEAN_MOTION_DOT":"0.00024364","PERIAPSIS":"354.000","MEAN_ANOMALY":"274.2510","RA_OF_ASC_NODE":"126.6659","EPHEMERIS_TYPE":"0","DECAY_DATE":null,"OBJECT_ID":"2020-057AE","NORAD_CAT_ID":"46145"},{"RCS_SIZE":"LARGE","TLE_LINE2":"2 46146  53.0552 163.2406 0001818  66.0336 294.0843 15.06387447 57396","ARG_OF_PERICENTER":"66.0336","CLASSIFICATION_TYPE":"U","INCLINATION":"53.0552","TLE_LINE1":"1 46146U 20057AF  21244.80758534  .00002291  00000-0  17274-3 0  9996","TIME_SYSTEM":"UTC","MEAN_MOTION":"15.06387447","MEAN_MOTION_DDOT":"0.0000000000000","OBJECT_NAME":"STARLINK-1608","CENTER_NAME":"EARTH","SITE":"AFETR","ELEMENT_SET_NO":"999","REV_AT_EPOCH":"5739","ECCENTRICITY":"0.00018180","EPOCH":"2021-09-01T19:22:55.373376","OBJECT_TYPE":"PAYLOAD","PERIOD":"95.593","APOAPSIS":"548.511","SEMIMAJOR_AXIS":"6925.387","MEAN_ELEMENT_THEORY":"SGP4","COUNTRY_CODE":"US","GP_ID":"183926991","BSTAR":"0.00017274000000","LAUNCH_DATE":"2020-08-18","FILE":"3107096","REF_FRAME":"TEME","MEAN_MOTION_DOT":"0.00002291","PERIAPSIS":"545.993","MEAN_ANOMALY":"294.0843","RA_OF_ASC_NODE":"163.2406","DECAY_DATE":null,"EPHEMERIS_TYPE":"0","NORAD_CAT_ID":"46146","OBJECT_ID":"2020-057AF"},{"EPOCH":"2021-09-01T20:31:55.058304","ECCENTRICITY":"0.00018230","PERIOD":"95.593","OBJECT_TYPE":"PAYLOAD","APOAPSIS":"548.502","SEMIMAJOR_AXIS":"6925.374","RCS_SIZE":"LARGE","ARG_OF_PERICENTER":"60.8271","TLE_LINE2":"2 46147  53.0549 163.0224 0001823  60.8271 299.2900 15.06391596 58656","TIME_SYSTEM":"UTC","TLE_LINE1":"1 46147U 20057AG  21244.85549836  .00002569  00000-0  19135-3 0  9991","CLASSIFICATION_TYPE":"U","INCLINATION":"53.0549","MEAN_MOTION":"15.06391596","OBJECT_NAME":"STARLINK-1611","MEAN_MOTION_DDOT":"0.0000000000000","REV_AT_EPOCH":"5865","ELEMENT_SET_NO":"999","SITE":"AFETR","CENTER_NAME":"EARTH","PERIAPSIS":"545.977","MEAN_ANOMALY":"299.2900","RA_OF_ASC_NODE":"163.0224","EPHEMERIS_TYPE":"0","DECAY_DATE":null,"OBJECT_ID":"2020-057AG","NORAD_CAT_ID":"46147","COUNTRY_CODE":"US","MEAN_ELEMENT_THEORY":"SGP4","GP_ID":"183927740","BSTAR":"0.00019135000000","LAUNCH_DATE":"2020-08-18","REF_FRAME":"TEME","FILE":"3107096","MEAN_MOTION_DOT":"0.00002569"},{"RCS_SIZE":"LARGE","ARG_OF_PERICENTER":"71.6551","TLE_LINE2":"2 46148  53.0534 142.9915 0001743  71.6551 288.4627 15.06391184 57676","TIME_SYSTEM":"UTC","TLE_LINE1":"1 46148U 20057AH  21244.86101793  .00000637  00000-0  61659-4 0  9992","INCLINATION":"53.0534","CLASSIFICATION_TYPE":"U","MEAN_MOTION":"15.06391184","OBJECT_NAME":"STARLINK-1616","MEAN_MOTION_DDOT":"0.0000000000000","REV_AT_EPOCH":"5767","ELEMENT_SET_NO":"999","CENTER_NAME":"EARTH","SITE":"AFETR","EPOCH":"2021-09-01T20:39:51.949152","ECCENTRICITY":"0.00017430","OBJECT_TYPE":"PAYLOAD","PERIOD":"95.593","APOAPSIS":"548.448","SEMIMAJOR_AXIS":"6925.376","COUNTRY_CODE":"US","MEAN_ELEMENT_THEORY":"SGP4","GP_ID":"183927494","BSTAR":"0.00006165900000","LAUNCH_DATE":"2020-08-18","REF_FRAME":"TEME","FILE":"3107096","MEAN_MOTION_DOT":"0.00000637","PERIAPSIS":"546.033","MEAN_ANOMALY":"288.4627","RA_OF_ASC_NODE":"142.9915","EPHEMERIS_TYPE":"0","DECAY_DATE":null,"OBJECT_ID":"2020-057AH","NORAD_CAT_ID":"46148"},{"RA_OF_ASC_NODE":"142.9292","MEAN_ANOMALY":"291.1311","PERIAPSIS":"545.941","NORAD_CAT_ID":"46149","OBJECT_ID":"2020-057AJ","DECAY_DATE":null,"EPHEMERIS_TYPE":"0","BSTAR":"0.00001215100000","GP_ID":"183926742","MEAN_ELEMENT_THEORY":"SGP4","COUNTRY_CODE":"US","MEAN_MOTION_DOT":"-0.00000101","FILE":"3107096","REF_FRAME":"TEME","LAUNCH_DATE":"2020-08-18","OBJECT_TYPE":"PAYLOAD","PERIOD":"95.593","ECCENTRICITY":"0.00018710","EPOCH":"2021-09-01T21:01:05.307168","SEMIMAJOR_AXIS":"6925.372","APOAPSIS":"548.533","CLASSIFICATION_TYPE":"U","INCLINATION":"53.0543","TLE_LINE1":"1 46149U 20057AJ  21244.87575587 -.00000101  00000-0  12151-4 0  9990","TIME_SYSTEM":"UTC","TLE_LINE2":"2 46149  53.0543 142.9292 0001871  68.9878 291.1311 15.06392298 58958","ARG_OF_PERICENTER":"68.9878","RCS_SIZE":"LARGE","SITE":"AFETR","CENTER_NAME":"EARTH","REV_AT_EPOCH":"5895","ELEMENT_SET_NO":"999","MEAN_MOTION_DDOT":"0.0000000000000","OBJECT_NAME":"STARLINK-1620","MEAN_MOTION":"15.06392298"}];
